{
  "type": "FeatureCollection",
  "features": [
    {
      "type": "Feature",
      "properties": {
        "norad_id": 39773,
        "name": "EUTELSAT 3B",
        "group": "eutelsat",
        "lat": 0.08275481865680348,
        "lon": 72.31951429576722,
        "alt_km": 35802.49661890025,
        "timestamp": "2025-12-19T22:41:52.050872+00:00",
        "meta_object_name": "EUTELSAT 3B",
        "meta_object_id": "2014-030A",
        "meta_epoch": "2025-12-19T13:16:47.475264",
        "meta_mean_motion": 1.00272393,
        "meta_eccentricity": 0.0004172,
        "meta_inclination": 0.0604,
        "meta_ra_of_asc_node": 4.345,
        "meta_arg_of_pericenter": 228.1768,
        "meta_mean_anomaly": 58.1672,
        "meta_ephemeris_type": 0,
        "meta_classification_type": "U",
        "meta_norad_cat_id": 39773,
        "meta_element_set_no": 999,
        "meta_rev_at_epoch": 4226,
        "meta_bstar": 0,
        "meta_mean_motion_dot": 4.5e-07,
        "meta_mean_motion_ddot": 0,
        "tle_line1": "1 39773U 14030A   25353.55332726  .00000045  00000+0  00000+0 0  9995",
        "tle_line2": "2 39773   0.0604   4.3450 0004172 228.1768  58.1672  1.00272393 42265"
      },
      "geometry": {
        "type": "Point",
        "coordinates": [
          72.31951429576722,
          0.08275481865680348
        ]
      }
    },
    {
      "type": "Feature",
      "properties": {
        "norad_id": 40425,
        "name": "EUTELSAT 115 WEST B",
        "group": "eutelsat",
        "lat": 0.0062299525691548166,
        "lon": -45.646188137074,
        "alt_km": 35784.06262820536,
        "timestamp": "2025-12-19T22:41:52.050884+00:00",
        "meta_object_name": "EUTELSAT 115 WEST B",
        "meta_object_id": "2015-010B",
        "meta_epoch": "2025-12-19T12:08:14.383392",
        "meta_mean_motion": 1.00273295,
        "meta_eccentricity": 3.76e-05,
        "meta_inclination": 0.0143,
        "meta_ra_of_asc_node": 153.4054,
        "meta_arg_of_pericenter": 157.9495,
        "meta_mean_anomaly": 204.1658,
        "meta_ephemeris_type": 0,
        "meta_classification_type": "U",
        "meta_norad_cat_id": 40425,
        "meta_element_set_no": 999,
        "meta_rev_at_epoch": 3959,
        "meta_bstar": 0,
        "meta_mean_motion_dot": -1e-08,
        "meta_mean_motion_ddot": 0,
        "tle_line1": "1 40425U 15010B   25353.50572203 -.00000001  00000+0  00000+0 0  9994",
        "tle_line2": "2 40425   0.0143 153.4054 0000376 157.9495 204.1658  1.00273295 39594"
      },
      "geometry": {
        "type": "Point",
        "coordinates": [
          -45.646188137074,
          0.0062299525691548166
        ]
      }
    },
    {
      "type": "Feature",
      "properties": {
        "norad_id": 40875,
        "name": "EUTELSAT 8 WEST B",
        "group": "eutelsat",
        "lat": 0.08287073576748605,
        "lon": 61.27357201027225,
        "alt_km": 35802.2283970691,
        "timestamp": "2025-12-19T22:41:52.050896+00:00",
        "meta_object_name": "EUTELSAT 8 WEST B",
        "meta_object_id": "2015-039B",
        "meta_epoch": "2025-12-19T18:21:37.631232",
        "meta_mean_motion": 1.00271041,
        "meta_eccentricity": 0.0004278,
        "meta_inclination": 0.0634,
        "meta_ra_of_asc_node": 356.5295,
        "meta_arg_of_pericenter": 273.1926,
        "meta_mean_anomaly": 86.3009,
        "meta_ephemeris_type": 0,
        "meta_classification_type": "U",
        "meta_norad_cat_id": 40875,
        "meta_element_set_no": 999,
        "meta_rev_at_epoch": 3785,
        "meta_bstar": 0,
        "meta_mean_motion_dot": -4.1e-07,
        "meta_mean_motion_ddot": 0,
        "tle_line1": "1 40875U 15039B   25353.76501888 -.00000041  00000+0  00000+0 0  9997",
        "tle_line2": "2 40875   0.0634 356.5295 0004278 273.1926  86.3009  1.00271041 37850"
      },
      "geometry": {
        "type": "Point",
        "coordinates": [
          61.27357201027225,
          0.08287073576748605
        ]
      }
    },
    {
      "type": "Feature",
      "properties": {
        "norad_id": 41310,
        "name": "EUTELSAT 9B",
        "group": "eutelsat",
        "lat": 0.03105311230321962,
        "lon": 78.25045109147428,
        "alt_km": 35803.9832419093,
        "timestamp": "2025-12-19T22:41:52.050908+00:00",
        "meta_object_name": "EUTELSAT 9B",
        "meta_object_id": "2016-005A",
        "meta_epoch": "2025-12-19T18:26:29.664096",
        "meta_mean_motion": 1.00272484,
        "meta_eccentricity": 0.0004462,
        "meta_inclination": 0.0609,
        "meta_ra_of_asc_node": 71.098,
        "meta_arg_of_pericenter": 203.9311,
        "meta_mean_anomaly": 99.1983,
        "meta_ephemeris_type": 0,
        "meta_classification_type": "U",
        "meta_norad_cat_id": 41310,
        "meta_element_set_no": 999,
        "meta_rev_at_epoch": 3631,
        "meta_bstar": 0,
        "meta_mean_motion_dot": 8.6e-07,
        "meta_mean_motion_ddot": 0,
        "tle_line1": "1 41310U 16005A   25353.76839889  .00000086  00000+0  00000+0 0  9999",
        "tle_line2": "2 41310   0.0609  71.0980 0004462 203.9311  99.1983  1.00272484 36316"
      },
      "geometry": {
        "type": "Point",
        "coordinates": [
          78.25045109147428,
          0.03105311230321962
        ]
      }
    },
    {
      "type": "Feature",
      "properties": {
        "norad_id": 41382,
        "name": "EUTELSAT 65 WEST A",
        "group": "eutelsat",
        "lat": 0.0372244582729517,
        "lon": 4.0573364406856625,
        "alt_km": 35785.946530761634,
        "timestamp": "2025-12-19T22:41:52.050921+00:00",
        "meta_object_name": "EUTELSAT 65 WEST A",
        "meta_object_id": "2016-014A",
        "meta_epoch": "2025-12-19T11:38:39.170976",
        "meta_mean_motion": 1.00274135,
        "meta_eccentricity": 0.0002092,
        "meta_inclination": 0.0543,
        "meta_ra_of_asc_node": 330.1482,
        "meta_arg_of_pericenter": 300.8547,
        "meta_mean_anomaly": 286.7795,
        "meta_ephemeris_type": 0,
        "meta_classification_type": "U",
        "meta_norad_cat_id": 41382,
        "meta_element_set_no": 999,
        "meta_rev_at_epoch": 3573,
        "meta_bstar": 0,
        "meta_mean_motion_dot": -2.52e-06,
        "meta_mean_motion_ddot": 0,
        "tle_line1": "1 41382U 16014A   25353.48517559 -.00000252  00000+0  00000+0 0  9990",
        "tle_line2": "2 41382   0.0543 330.1482 0002092 300.8547 286.7795  1.00274135 35738"
      },
      "geometry": {
        "type": "Point",
        "coordinates": [
          4.0573364406856625,
          0.0372244582729517
        ]
      }
    },
    {
      "type": "Feature",
      "properties": {
        "norad_id": 41589,
        "name": "EUTELSAT 117 WEST B",
        "group": "eutelsat",
        "lat": 0.0068774325562330554,
        "lon": -47.740700464254346,
        "alt_km": 35784.80443792365,
        "timestamp": "2025-12-19T22:41:52.050932+00:00",
        "meta_object_name": "EUTELSAT 117 WEST B",
        "meta_object_id": "2016-038B",
        "meta_epoch": "2025-12-19T12:07:15.989088",
        "meta_mean_motion": 1.00271292,
        "meta_eccentricity": 3.33e-05,
        "meta_inclination": 0.0139,
        "meta_ra_of_asc_node": 154.0822,
        "meta_arg_of_pericenter": 162.5919,
        "meta_mean_anomaly": 196.5118,
        "meta_ephemeris_type": 0,
        "meta_classification_type": "U",
        "meta_norad_cat_id": 41589,
        "meta_element_set_no": 999,
        "meta_rev_at_epoch": 3486,
        "meta_bstar": 0,
        "meta_mean_motion_dot": 1.3e-07,
        "meta_mean_motion_ddot": 0,
        "tle_line1": "1 41589U 16038B   25353.50504617  .00000013  00000+0  00000+0 0  9993",
        "tle_line2": "2 41589   0.0139 154.0822 0000333 162.5919 196.5118  1.00271292 34862"
      },
      "geometry": {
        "type": "Point",
        "coordinates": [
          -47.740700464254346,
          0.0068774325562330554
        ]
      }
    },
    {
      "type": "Feature",
      "properties": {
        "norad_id": 42741,
        "name": "EUTELSAT 172B",
        "group": "eutelsat",
        "lat": -0.007687390734571352,
        "lon": -118.75633954113087,
        "alt_km": 35787.395614560344,
        "timestamp": "2025-12-19T22:41:52.050944+00:00",
        "meta_object_name": "EUTELSAT 172B",
        "meta_object_id": "2017-029B",
        "meta_epoch": "2025-12-19T17:30:22.070304",
        "meta_mean_motion": 1.00270724,
        "meta_eccentricity": 3.06e-05,
        "meta_inclination": 0.0406,
        "meta_ra_of_asc_node": 133.1043,
        "meta_arg_of_pericenter": 326.2421,
        "meta_mean_anomaly": 63.818,
        "meta_ephemeris_type": 0,
        "meta_classification_type": "U",
        "meta_norad_cat_id": 42741,
        "meta_element_set_no": 999,
        "meta_rev_at_epoch": 3193,
        "meta_bstar": 0,
        "meta_mean_motion_dot": 1.9e-07,
        "meta_mean_motion_ddot": 0,
        "tle_line1": "1 42741U 17029B   25353.72942211  .00000019  00000+0  00000+0 0  9991",
        "tle_line2": "2 42741   0.0406 133.1043 0000306 326.2421  63.8180  1.00270724 31939"
      },
      "geometry": {
        "type": "Point",
        "coordinates": [
          -118.75633954113087,
          -0.007687390734571352
        ]
      }
    }
  ]
}